44954,STARLINK-1066,2020,92.38,227.0,P,53.05,Active,1,LEO,USA,USA,Commercial,Communications,Falcon,1 44954U 20001AS  25158.23836394  .00124851  00000+0  15655-2 0  9992,2 44954  53.0538  95.4599 0003251 139.3569 220.7685 15.58861762298941,15.58861762,0.0003251,LEO
44961,STARLINK-1080,2020,95.59,227.0,+,53.06,Active,1,LEO,USA,USA,Commercial,Communications,Falcon,1 44961U 20001AZ  25158.54958836  .00000177  00000+0  30760-4 0  9990,2 44961  53.0560 101.7747 0001554  93.9242 266.1925 15.06397093298942,15.06397093,0.0001554,LEO
44968,STARLINK-1090,2020,95.59,227.0,+,53.06,Active,1,LEO,USA,USA,Commercial,Communications,Falcon,1 44968U 20001BG  25158.55327341  .00001557  00000+0  12341-3 0  9996,2 44968  53.0552 101.7555 0001302  88.0485 272.0653 15.06402246298943,15.06402246,0.0001302,LEO
44969,STARLINK-1092,2020,90.63,227.0,P,53.04,Active,1,LEO,USA,USA,Commercial,Communications,Falcon,1 44969U 20001BH  25158.91667824  .00157657  00000+0  52912-3 0  9991,2 44969  53.0411  44.0336 0004864 127.5371 278.4948 15.89146608299747,15.89146608,0.0004864,LEO
44970,STARLINK-1093,2020,90.99,227.0,P,53.04,Active,1,LEO,USA,USA,Commercial,Communications,Falcon,1 44970U 20001BJ  25158.90179339  .00115230  00000+0  52939-3 0  9991,2 44970  53.0422  25.0652 0003308 145.5610 214.5627 15.82816358300038,15.82816358,0.0003308,LEO
44972,STARLINK-1107,2020,93.26,227.0,P,53.02,Active,1,LEO,USA,USA,Commercial,Communications,Falcon,1 44972U 20001BL  25158.45765362  .00036551  00000+0  79454-3 0  9999,2 44972  53.0194  64.7708 0005707  85.0283 275.1374 15.43993277299455,15.43993277,0.0005707,LEO
44973,STARLINK-1115,2020,92.0,227.0,P,53.03,Active,1,LEO,USA,USA,Commercial,Communications,Falcon,1 44973U 20001BM  25157.96015435  .00117311  00000+0  11541-2 0  9990,2 44973  53.0347  41.6490 0004430  88.7364 271.4158 15.65146821299739,15.65146821,0.000443,LEO
45044,STARLINK-1132,2020,95.59,227.0,+,53.06,Active,1,LEO,USA,USA,Commercial,Communications,Falcon,1 45044U 20006A   25158.71175014 -.00004828  00000+0 -30530-3 0  9999,2 45044  53.0563  61.0404 0001201  83.6120 276.5006 15.06414677295632,15.06414677,0.0001201,LEO
45047,STARLINK-1131,2020,95.59,227.0,+,53.06,Active,1,LEO,USA,USA,Commercial,Communications,Falcon,1 45047U 20006D   25158.48883489 -.00000407  00000+0 -84181-5 0  9990,2 45047  53.0563  82.5813 0001615  97.1975 262.9198 15.06395194294973,15.06395194,0.0001615,LEO
45048,STARLINK-1134,2020,94.91,227.0,P,53.05,Active,1,LEO,USA,USA,Commercial,Communications,Falcon,1 45048U 20006E   25158.46403264  .00033763  00000+0  16800-2 0  9997,2 45048  53.0546  76.0873 0008294  65.6261 294.5597 15.17303978295063,15.17303978,0.0008294,LEO
45052,STARLINK-1148,2020,91.06,227.0,P,53.04,Active,1,LEO,USA,USA,Commercial,Communications,Falcon,1 45052U 20006J   25158.91667824  .00239075  00000+0  11449-2 0  9994,2 45052  53.0409   2.5307 0002938 179.1347   5.3366 15.81551482296471,15.81551482,0.0002938,LEO
45054,STARLINK-1156,2020,95.59,227.0,+,53.06,Active,1,LEO,USA,USA,Commercial,Communications,Falcon,1 45054U 20006L   25158.52562940  .00001390  00000+0  11217-3 0  9997,2 45054  53.0555  81.8749 0001349  95.0272 265.0871 15.06400237294981,15.06400237,0.0001349,LEO
45057,STARLINK-1159,2020,95.59,227.0,+,53.06,Active,1,LEO,USA,USA,Commercial,Communications,Falcon,1 45057U 20006P   25158.80575490  .00000677  00000+0  64361-4 0  9991,2 45057  53.0561  80.6147 0001493 101.5018 258.6139 15.06409142295374,15.06409142,0.0001493,LEO
45060,STARLINK-1166,2020,95.59,227.0,+,53.06,Active,1,LEO,USA,USA,Commercial,Communications,Falcon,1 45060U 20006S   25158.48508771  .00000537  00000+0  54976-4 0  9993,2 45060  53.0567  82.0611 0001597  95.3862 264.7309 15.06399930294984,15.0639993,0.0001597,LEO
