[
  {
    "OBJECT_NAME": "STARLINK-1066",
    "OBJECT_ID": "2020-001AS",
    "EPOCH": "2025-06-07T05:43:14.644416",
    "MEAN_MOTION": 15.58861762,
    "ECCENTRICITY": 0.0003251,
    "INCLINATION": 53.0538,
    "RA_OF_ASC_NODE": 95.4599,
    "ARG_OF_PERICENTER": 139.3569,
    "MEAN_ANOMALY": 220.7685,
    "EPHEMERIS_TYPE": 0,
    "CLASSIFICATION_TYPE": "U",
    "NORAD_CAT_ID": 44954,
    "ELEMENT_SET_NO": 999,
    "REV_AT_EPOCH": 29894,
    "BSTAR": 0.0015655,
    "MEAN_MOTION_DOT": 0.00124851,
    "MEAN_MOTION_DDOT": 0
  },
  {
    "OBJECT_NAME": "STARLINK-1080",
    "OBJECT_ID": "2020-001AZ",
    "EPOCH": "2025-06-07T13:11:24.434304",
    "MEAN_MOTION": 15.06397093,
    "ECCENTRICITY": 0.0001554,
    "INCLINATION": 53.056,
    "RA_OF_ASC_NODE": 101.7747,
    "ARG_OF_PERICENTER": 93.9242,
    "MEAN_ANOMALY": 266.1925,
    "EPHEMERIS_TYPE": 0,
    "CLASSIFICATION_TYPE": "U",
    "NORAD_CAT_ID": 44961,
    "ELEMENT_SET_NO": 999,
    "REV_AT_EPOCH": 29894,
    "BSTAR": 3.076e-05,
    "MEAN_MOTION_DOT": 1.77e-06,
    "MEAN_MOTION_DDOT": 0
  },
  {
    "OBJECT_NAME": "STARLINK-1090",
    "OBJECT_ID": "2020-001BG",
    "EPOCH": "2025-06-07T13:16:42.822624",
    "MEAN_MOTION": 15.06402246,
    "ECCENTRICITY": 0.0001302,
    "INCLINATION": 53.0552,
    "RA_OF_ASC_NODE": 101.7555,
    "ARG_OF_PERICENTER": 88.0485,
    "MEAN_ANOMALY": 272.0653,
    "EPHEMERIS_TYPE": 0,
    "CLASSIFICATION_TYPE": "U",
    "NORAD_CAT_ID": 44968,
    "ELEMENT_SET_NO": 999,
    "REV_AT_EPOCH": 29894,
    "BSTAR": 0.00012341,
    "MEAN_MOTION_DOT": 1.557e-05,
    "MEAN_MOTION_DDOT": 0
  },
  {
    "OBJECT_NAME": "STARLINK-1092",
    "OBJECT_ID": "2020-001BH",
    "EPOCH": "2025-06-07T22:00:00.999936",
    "MEAN_MOTION": 15.89146608,
    "ECCENTRICITY": 0.0004864,
    "INCLINATION": 53.0411,
    "RA_OF_ASC_NODE": 44.0336,
    "ARG_OF_PERICENTER": 127.5371,
    "MEAN_ANOMALY": 278.4948,
    "EPHEMERIS_TYPE": 0,
    "CLASSIFICATION_TYPE": "U",
    "NORAD_CAT_ID": 44969,
    "ELEMENT_SET_NO": 999,
    "REV_AT_EPOCH": 29974,
    "BSTAR": 0.00052912,
    "MEAN_MOTION_DOT": 0.00157657,
    "MEAN_MOTION_DDOT": 0
  },
  {
    "OBJECT_NAME": "STARLINK-1093",
    "OBJECT_ID": "2020-001BJ",
    "EPOCH": "2025-06-07T21:38:34.948896",
    "MEAN_MOTION": 15.82816358,
    "ECCENTRICITY": 0.0003308,
    "INCLINATION": 53.0422,
    "RA_OF_ASC_NODE": 25.0652,
    "ARG_OF_PERICENTER": 145.561,
    "MEAN_ANOMALY": 214.5627,
    "EPHEMERIS_TYPE": 0,
    "CLASSIFICATION_TYPE": "U",
    "NORAD_CAT_ID": 44970,
    "ELEMENT_SET_NO": 999,
    "REV_AT_EPOCH": 30003,
    "BSTAR": 0.00052939,
    "MEAN_MOTION_DOT": 0.0011523,
    "MEAN_MOTION_DDOT": 0
  },
  {
    "OBJECT_NAME": "STARLINK-1107",
    "OBJECT_ID": "2020-001BL",
    "EPOCH": "2025-06-07T10:59:01.272768",
    "MEAN_MOTION": 15.43993277,
    "ECCENTRICITY": 0.0005707,
    "INCLINATION": 53.0194,
    "RA_OF_ASC_NODE": 64.7708,
    "ARG_OF_PERICENTER": 85.0283,
    "MEAN_ANOMALY": 275.1374,
    "EPHEMERIS_TYPE": 0,
    "CLASSIFICATION_TYPE": "U",
    "NORAD_CAT_ID": 44972,
    "ELEMENT_SET_NO": 999,
    "REV_AT_EPOCH": 29945,
    "BSTAR": 0.00079454,
    "MEAN_MOTION_DOT": 0.00036551,
    "MEAN_MOTION_DDOT": 0
  },
  {
    "OBJECT_NAME": "STARLINK-1115",
    "OBJECT_ID": "2020-001BM",
    "EPOCH": "2025-06-06T23:02:37.335840",
    "MEAN_MOTION": 15.65146821,
    "ECCENTRICITY": 0.000443,
    "INCLINATION": 53.0347,
    "RA_OF_ASC_NODE": 41.649,
    "ARG_OF_PERICENTER": 88.7364,
    "MEAN_ANOMALY": 271.4158,
    "EPHEMERIS_TYPE": 0,
    "CLASSIFICATION_TYPE": "U",
    "NORAD_CAT_ID": 44973,
    "ELEMENT_SET_NO": 999,
    "REV_AT_EPOCH": 29973,
    "BSTAR": 0.0011541,
    "MEAN_MOTION_DOT": 0.00117311,
    "MEAN_MOTION_DDOT": 0
  },
  {
    "OBJECT_NAME": "STARLINK-1132",
    "OBJECT_ID": "2020-006A",
    "EPOCH": "2025-06-07T17:04:55.212096",
    "MEAN_MOTION": 15.06414677,
    "ECCENTRICITY": 0.0001201,
    "INCLINATION": 53.0563,
    "RA_OF_ASC_NODE": 61.0404,
    "ARG_OF_PERICENTER": 83.612,
    "MEAN_ANOMALY": 276.5006,
    "EPHEMERIS_TYPE": 0,
    "CLASSIFICATION_TYPE": "U",
    "NORAD_CAT_ID": 45044,
    "ELEMENT_SET_NO": 999,
    "REV_AT_EPOCH": 29563,
    "BSTAR": -0.0003053,
    "MEAN_MOTION_DOT": -4.828e-05,
    "MEAN_MOTION_DDOT": 0
  },
  {
    "OBJECT_NAME": "STARLINK-1131",
    "OBJECT_ID": "2020-006D",
    "EPOCH": "2025-06-07T11:43:55.334496",
    "MEAN_MOTION": 15.06395194,
    "ECCENTRICITY": 0.0001615,
    "INCLINATION": 53.0563,
    "RA_OF_ASC_NODE": 82.5813,
    "ARG_OF_PERICENTER": 97.1975,
    "MEAN_ANOMALY": 262.9198,
    "EPHEMERIS_TYPE": 0,
    "CLASSIFICATION_TYPE": "U",
    "NORAD_CAT_ID": 45047,
    "ELEMENT_SET_NO": 999,
    "REV_AT_EPOCH": 29497,
    "BSTAR": -8.4181e-06,
    "MEAN_MOTION_DOT": -4.07e-06,
    "MEAN_MOTION_DDOT": 0
  },
  {
    "OBJECT_NAME": "STARLINK-1134",
    "OBJECT_ID": "2020-006E",
    "EPOCH": "2025-06-07T11:08:12.420096",
    "MEAN_MOTION": 15.17303978,
    "ECCENTRICITY": 0.0008294,
    "INCLINATION": 53.0546,
    "RA_OF_ASC_NODE": 76.0873,
    "ARG_OF_PERICENTER": 65.6261,
    "MEAN_ANOMALY": 294.5597,
    "EPHEMERIS_TYPE": 0,
    "CLASSIFICATION_TYPE": "U",
    "NORAD_CAT_ID": 45048,
    "ELEMENT_SET_NO": 999,
    "REV_AT_EPOCH": 29506,
    "BSTAR": 0.00168,
    "MEAN_MOTION_DOT": 0.00033763,
    "MEAN_MOTION_DDOT": 0
  },
  {
    "OBJECT_NAME": "STARLINK-1148",
    "OBJECT_ID": "2020-006J",
    "EPOCH": "2025-06-07T22:00:00.999936",
    "MEAN_MOTION": 15.81551482,
    "ECCENTRICITY": 0.0002938,
    "INCLINATION": 53.0409,
    "RA_OF_ASC_NODE": 2.5307,
    "ARG_OF_PERICENTER": 179.1347,
    "MEAN_ANOMALY": 5.3366,
    "EPHEMERIS_TYPE": 0,
    "CLASSIFICATION_TYPE": "U",
    "NORAD_CAT_ID": 45052,
    "ELEMENT_SET_NO": 999,
    "REV_AT_EPOCH": 29647,
    "BSTAR": 0.0011449,
    "MEAN_MOTION_DOT": 0.00239075,
    "MEAN_MOTION_DDOT": 0
  },
  {
    "OBJECT_NAME": "STARLINK-1156",
    "OBJECT_ID": "2020-006L",
    "EPOCH": "2025-06-07T12:36:54.380160",
    "MEAN_MOTION": 15.06400237,
    "ECCENTRICITY": 0.0001349,
    "INCLINATION": 53.0555,
    "RA_OF_ASC_NODE": 81.8749,
    "ARG_OF_PERICENTER": 95.0272,
    "MEAN_ANOMALY": 265.0871,
    "EPHEMERIS_TYPE": 0,
    "CLASSIFICATION_TYPE": "U",
    "NORAD_CAT_ID": 45054,
    "ELEMENT_SET_NO": 999,
    "REV_AT_EPOCH": 29498,
    "BSTAR": 0.00011217,
    "MEAN_MOTION_DOT": 1.39e-05,
    "MEAN_MOTION_DDOT": 0
  },
  {
    "OBJECT_NAME": "STARLINK-1159",
    "OBJECT_ID": "2020-006P",
    "EPOCH": "2025-06-07T19:20:17.223360",
    "MEAN_MOTION": 15.06409142,
    "ECCENTRICITY": 0.0001493,
    "INCLINATION": 53.0561,
    "RA_OF_ASC_NODE": 80.6147,
    "ARG_OF_PERICENTER": 101.5018,
    "MEAN_ANOMALY": 258.6139,
    "EPHEMERIS_TYPE": 0,
    "CLASSIFICATION_TYPE": "U",
    "NORAD_CAT_ID": 45057,
    "ELEMENT_SET_NO": 999,
    "REV_AT_EPOCH": 29537,
    "BSTAR": 6.4361e-05,
    "MEAN_MOTION_DOT": 6.77e-06,
    "MEAN_MOTION_DDOT": 0
  },
  {
    "OBJECT_NAME": "STARLINK-1166",
    "OBJECT_ID": "2020-006S",
    "EPOCH": "2025-06-07T11:38:31.578144",
    "MEAN_MOTION": 15.0639993,
    "ECCENTRICITY": 0.0001597,
    "INCLINATION": 53.0567,
    "RA_OF_ASC_NODE": 82.0611,
    "ARG_OF_PERICENTER": 95.3862,
    "MEAN_ANOMALY": 264.7309,
    "EPHEMERIS_TYPE": 0,
    "CLASSIFICATION_TYPE": "U",
    "NORAD_CAT_ID": 45060,
    "ELEMENT_SET_NO": 999,
    "REV_AT_EPOCH": 29498,
    "BSTAR": 5.4976e-05,
    "MEAN_MOTION_DOT": 5.37e-06,
    "MEAN_MOTION_DDOT": 0
  }
]